STARLINK-32635          
1 62155U 24224S   26068.30572861  .00025123  00000+0  91924-3 0  9997
2 62155  42.9992 167.8490 0000431 242.1694 117.9114 15.27584108 72179
2025-313BE              
1 67482U 25313BE  26068.69721505  .00077178  00000+0  26504-2 0  9996
2 67482  97.3989 145.3568 0007208 335.3714  24.7181 15.29801687  7972
